{"fetched_at":"2026-07-11T09:24:07.374Z","source":"https://celestrak.org/NORAD/elements/gp.php?GROUP=stations&FORMAT=JSON","constellation":"tiangong","records":[{"OBJECT_NAME":"CSS (TIANHE)","OBJECT_ID":"2021-035A","EPOCH":"2026-07-11T04:14:27.228192","CLASSIFICATION_TYPE":"U","MEAN_MOTION":15.58018743,"ECCENTRICITY":0.0002261,"INCLINATION":41.4681,"RA_OF_ASC_NODE":176.1877,"ARG_OF_PERICENTER":281.6943,"MEAN_ANOMALY":78.3641,"EPHEMERIS_TYPE":0,"NORAD_CAT_ID":48274,"ELEMENT_SET_NO":999,"REV_AT_EPOCH":29691,"BSTAR":0.000021953,"MEAN_MOTION_DOT":0.00001365,"MEAN_MOTION_DDOT":0}]}
